[{"OBJECT_NAME":"STARLINK-5626","OBJECT_ID":"2023-014AW","EPOCH":"2026-03-09T12:25:32.220192","MEAN_MOTION":14.98329947,"ECCENTRICITY":0.00033054,"INCLINATION":69.9993,"RA_OF_ASC_NODE":104.8659,"ARG_OF_PERICENTER":269.0339,"MEAN_ANOMALY":91.0442,"EPHEMERIS_TYPE":0,"CLASSIFICATION_TYPE":"U","NORAD_CAT_ID":55435,"ELEMENT_SET_NO":999,"REV_AT_EPOCH":17104,"BSTAR":-2.0779426e-5,"MEAN_MOTION_DOT":-3.41e-6,"MEAN_MOTION_DDOT":0},{"OBJECT_NAME":"ICEYE-X48","OBJECT_ID":"2025-052AV","EPOCH":"2026-03-09T16:59:01.566528","MEAN_MOTION":14.97356709,"ECCENTRICITY":0.00026878,"INCLINATION":97.6979,"RA_OF_ASC_NODE":322.3976,"ARG_OF_PERICENTER":141.7433,"MEAN_ANOMALY":218.398,"EPHEMERIS_TYPE":0,"CLASSIFICATION_TYPE":"U","NORAD_CAT_ID":63253,"ELEMENT_SET_NO":999,"REV_AT_EPOCH":5378,"BSTAR":0.00039588576,"MEAN_MOTION_DOT":4.541e-5,"MEAN_MOTION_DDOT":0}]
