STARLINK-5626           
1 55435U 23014AW  26068.51773403 -.00000341  00000+0 -20779-4 0  9992
2 55435  69.9993 104.8659 0003305 269.0339  91.0442 14.98329947171044
ICEYE-X48               
1 63253U 25052AV  26068.70765702  .00004541  00000+0  39589-3 0  9999
2 63253  97.6979 322.3976 0002688 141.7433 218.3980 14.97356709 53782
